{
  "type": "FeatureCollection",
  "features": [
    {
      "type": "Feature",
      "properties": {
        "norad_id": 39773,
        "name": "EUTELSAT 3B",
        "group": "eutelsat",
        "lat": -0.07405898997902201,
        "lon": -122.66825524806023,
        "alt_km": 35766.628388875484,
        "timestamp": "2025-12-02T10:50:46.944866+00:00",
        "meta_object_name": "EUTELSAT 3B",
        "meta_object_id": "2014-030A",
        "meta_epoch": "2025-12-02T03:31:34.712256",
        "meta_mean_motion": 1.00270567,
        "meta_eccentricity": 0.0004754,
        "meta_inclination": 0.0627,
        "meta_ra_of_asc_node": 358.4997,
        "meta_arg_of_pericenter": 228.1115,
        "meta_mean_anomaly": 260.6387,
        "meta_ephemeris_type": 0,
        "meta_classification_type": "U",
        "meta_norad_cat_id": 39773,
        "meta_element_set_no": 999,
        "meta_rev_at_epoch": 4209,
        "meta_bstar": 0,
        "meta_mean_motion_dot": 4.1e-07,
        "meta_mean_motion_ddot": 0,
        "tle_line1": "1 39773U 14030A   25336.14692954  .00000041  00000+0  00000+0 0  9999",
        "tle_line2": "2 39773   0.0627 358.4997 0004754 228.1115 260.6387  1.00270567 42096"
      },
      "geometry": {
        "type": "Point",
        "coordinates": [
          -122.66825524806023,
          -0.07405898997902201
        ]
      }
    },
    {
      "type": "Feature",
      "properties": {
        "norad_id": 40425,
        "name": "EUTELSAT 115 WEST B",
        "group": "eutelsat",
        "lat": -0.00401533354593817,
        "lon": 119.3212826358875,
        "alt_km": 35786.52561064802,
        "timestamp": "2025-12-02T10:50:46.944877+00:00",
        "meta_object_name": "EUTELSAT 115 WEST B",
        "meta_object_id": "2015-010B",
        "meta_epoch": "2025-12-01T23:33:38.579328",
        "meta_mean_motion": 1.00269195,
        "meta_eccentricity": 1.92e-05,
        "meta_inclination": 0.0091,
        "meta_ra_of_asc_node": 164.6167,
        "meta_arg_of_pericenter": 243.8605,
        "meta_mean_anomaly": 261.1263,
        "meta_ephemeris_type": 0,
        "meta_classification_type": "U",
        "meta_norad_cat_id": 40425,
        "meta_element_set_no": 999,
        "meta_rev_at_epoch": 3941,
        "meta_bstar": 0,
        "meta_mean_motion_dot": -3e-08,
        "meta_mean_motion_ddot": 0,
        "tle_line1": "1 40425U 15010B   25335.98169652 -.00000003  00000+0  00000+0 0  9998",
        "tle_line2": "2 40425   0.0091 164.6167 0000192 243.8605 261.1263  1.00269195 39419"
      },
      "geometry": {
        "type": "Point",
        "coordinates": [
          119.3212826358875,
          -0.00401533354593817
        ]
      }
    },
    {
      "type": "Feature",
      "properties": {
        "norad_id": 40875,
        "name": "EUTELSAT 8 WEST B",
        "group": "eutelsat",
        "lat": -0.08048022444411854,
        "lon": -133.79287507661505,
        "alt_km": 35770.7589624975,
        "timestamp": "2025-12-02T10:50:46.944889+00:00",
        "meta_object_name": "EUTELSAT 8 WEST B",
        "meta_object_id": "2015-039B",
        "meta_epoch": "2025-12-02T03:28:27.511104",
        "meta_mean_motion": 1.00271462,
        "meta_eccentricity": 0.0004114,
        "meta_inclination": 0.0662,
        "meta_ra_of_asc_node": 344.4918,
        "meta_arg_of_pericenter": 269.5576,
        "meta_mean_anomaly": 221.3249,
        "meta_ephemeris_type": 0,
        "meta_classification_type": "U",
        "meta_norad_cat_id": 40875,
        "meta_element_set_no": 999,
        "meta_rev_at_epoch": 3768,
        "meta_bstar": 0,
        "meta_mean_motion_dot": -4.5e-07,
        "meta_mean_motion_ddot": 0,
        "tle_line1": "1 40875U 15039B   25336.14476286 -.00000045  00000+0  00000+0 0  9997",
        "tle_line2": "2 40875   0.0662 344.4918 0004114 269.5576 221.3249  1.00271462 37683"
      },
      "geometry": {
        "type": "Point",
        "coordinates": [
          -133.79287507661505,
          -0.08048022444411854
        ]
      }
    },
    {
      "type": "Feature",
      "properties": {
        "norad_id": 41310,
        "name": "EUTELSAT 9B",
        "group": "eutelsat",
        "lat": -0.015357391078336209,
        "lon": -116.80889137456508,
        "alt_km": 35767.15276145245,
        "timestamp": "2025-12-02T10:50:46.944900+00:00",
        "meta_object_name": "EUTELSAT 9B",
        "meta_object_id": "2016-005A",
        "meta_epoch": "2025-12-02T03:33:12.057408",
        "meta_mean_motion": 1.00270948,
        "meta_eccentricity": 0.0004828,
        "meta_inclination": 0.0621,
        "meta_ra_of_asc_node": 74.5874,
        "meta_arg_of_pericenter": 189.2685,
        "meta_mean_anomaly": 229.6889,
        "meta_ephemeris_type": 0,
        "meta_classification_type": "U",
        "meta_norad_cat_id": 41310,
        "meta_element_set_no": 999,
        "meta_rev_at_epoch": 3614,
        "meta_bstar": 0,
        "meta_mean_motion_dot": 8.3e-07,
        "meta_mean_motion_ddot": 0,
        "tle_line1": "1 41310U 16005A   25336.14805622  .00000083  00000+0  00000+0 0  9997",
        "tle_line2": "2 41310   0.0621  74.5874 0004828 189.2685 229.6889  1.00270948 36145"
      },
      "geometry": {
        "type": "Point",
        "coordinates": [
          -116.80889137456508,
          -0.015357391078336209
        ]
      }
    },
    {
      "type": "Feature",
      "properties": {
        "norad_id": 41382,
        "name": "EUTELSAT 65 WEST A",
        "group": "eutelsat",
        "lat": -0.01949002913649637,
        "lon": 168.99473396874836,
        "alt_km": 35785.94715104149,
        "timestamp": "2025-12-02T10:50:46.944912+00:00",
        "meta_object_name": "EUTELSAT 65 WEST A",
        "meta_object_id": "2016-014A",
        "meta_epoch": "2025-12-02T03:12:06.577344",
        "meta_mean_motion": 1.00271225,
        "meta_eccentricity": 0.0002707,
        "meta_inclination": 0.0508,
        "meta_ra_of_asc_node": 340.6974,
        "meta_arg_of_pericenter": 276.7584,
        "meta_mean_anomaly": 156.6171,
        "meta_ephemeris_type": 0,
        "meta_classification_type": "U",
        "meta_norad_cat_id": 41382,
        "meta_element_set_no": 999,
        "meta_rev_at_epoch": 3555,
        "meta_bstar": 0,
        "meta_mean_motion_dot": -2.55e-06,
        "meta_mean_motion_ddot": 0,
        "tle_line1": "1 41382U 16014A   25336.13340946 -.00000255  00000+0  00000+0 0  9990",
        "tle_line2": "2 41382   0.0508 340.6974 0002707 276.7584 156.6171  1.00271225 35556"
      },
      "geometry": {
        "type": "Point",
        "coordinates": [
          168.99473396874836,
          -0.01949002913649637
        ]
      }
    },
    {
      "type": "Feature",
      "properties": {
        "norad_id": 41589,
        "name": "EUTELSAT 117 WEST B",
        "group": "eutelsat",
        "lat": -0.004975661207251788,
        "lon": 117.23570732174069,
        "alt_km": 35786.365353741145,
        "timestamp": "2025-12-02T10:50:46.944923+00:00",
        "meta_object_name": "EUTELSAT 117 WEST B",
        "meta_object_id": "2016-038B",
        "meta_epoch": "2025-12-01T14:58:10.977024",
        "meta_mean_motion": 1.00272248,
        "meta_eccentricity": 1.08e-05,
        "meta_inclination": 0.0065,
        "meta_ra_of_asc_node": 141.8344,
        "meta_arg_of_pericenter": 143.4656,
        "meta_mean_anomaly": 252.9964,
        "meta_ephemeris_type": 0,
        "meta_classification_type": "U",
        "meta_norad_cat_id": 41589,
        "meta_element_set_no": 999,
        "meta_rev_at_epoch": 3468,
        "meta_bstar": 0,
        "meta_mean_motion_dot": 1e-07,
        "meta_mean_motion_ddot": 0,
        "tle_line1": "1 41589U 16038B   25335.62373816  .00000010  00000+0  00000+0 0  9998",
        "tle_line2": "2 41589   0.0065 141.8344 0000108 143.4656 252.9964  1.00272248 34687"
      },
      "geometry": {
        "type": "Point",
        "coordinates": [
          117.23570732174069,
          -0.004975661207251788
        ]
      }
    },
    {
      "type": "Feature",
      "properties": {
        "norad_id": 42741,
        "name": "EUTELSAT 172B",
        "group": "eutelsat",
        "lat": 0.0003247464995935522,
        "lon": 46.22010309175079,
        "alt_km": 35787.15316534162,
        "timestamp": "2025-12-02T10:50:46.944935+00:00",
        "meta_object_name": "EUTELSAT 172B",
        "meta_object_id": "2017-029B",
        "meta_epoch": "2025-12-02T01:27:38.476800",
        "meta_mean_motion": 1.00270459,
        "meta_eccentricity": 1.69e-05,
        "meta_inclination": 0.0058,
        "meta_ra_of_asc_node": 208.97,
        "meta_arg_of_pericenter": 14.4523,
        "meta_mean_anomaly": 41.6573,
        "meta_ephemeris_type": 0,
        "meta_classification_type": "U",
        "meta_norad_cat_id": 42741,
        "meta_element_set_no": 999,
        "meta_rev_at_epoch": 3175,
        "meta_bstar": 0,
        "meta_mean_motion_dot": 1.5e-07,
        "meta_mean_motion_ddot": 0,
        "tle_line1": "1 42741U 17029B   25336.06086200  .00000015  00000+0  00000+0 0  9992",
        "tle_line2": "2 42741   0.0058 208.9700 0000169  14.4523  41.6573  1.00270459 31754"
      },
      "geometry": {
        "type": "Point",
        "coordinates": [
          46.22010309175079,
          0.0003247464995935522
        ]
      }
    }
  ]
}